[Satellite]
VERSION=1.1
NAME=SDO
NICKNAME=SDO
TLE1=1 36395U 10005A   18020.33778907 -.00000065  00000-0  00000-0 0  9999
TLE2=2 36395  29.0206 136.5544 0001256 127.2906 235.3825  1.00269353 29251
